CCSDS_OMM_VERS = 2.0
CREATION_DATE  = 
ORIGINATOR     = 

OBJECT_NAME    = STARLINK-36040
OBJECT_ID      = 2025-270AC
CENTER_NAME    = EARTH
REF_FRAME      = TEME
TIME_SYSTEM    = UTC
MEAN_ELEMENT_THEORY = SGP/SGP4

EPOCH          = 2025-12-22T19:33:33.532416
MEAN_MOTION    = 15.40700005
ECCENTRICITY   = .00017915
INCLINATION    = 43.0038
RA_OF_ASC_NODE = 134.2382
ARG_OF_PERICENTER = 268.7631
MEAN_ANOMALY   = 91.3020

EPHEMERIS_TYPE = 0
CLASSIFICATION_TYPE = U
NORAD_CAT_ID   = 66614
ELEMENT_SET_NO = 999
REV_AT_EPOCH   = 574
BSTAR          = .11223894E-2
MEAN_MOTION_DOT = .4687E-3
MEAN_MOTION_DDOT = 0

CCSDS_OMM_VERS = 2.0
CREATION_DATE  = 
ORIGINATOR     = 

OBJECT_NAME    = STARLINK-35988
OBJECT_ID      = 2025-270AD
CENTER_NAME    = EARTH
REF_FRAME      = TEME
TIME_SYSTEM    = UTC
MEAN_ELEMENT_THEORY = SGP/SGP4

EPOCH          = 2025-12-22T18:19:33.981600
MEAN_MOTION    = 15.40722173
ECCENTRICITY   = .00009453
INCLINATION    = 42.9966
RA_OF_ASC_NODE = 134.7149
ARG_OF_PERICENTER = 267.1486
MEAN_ANOMALY   = 92.9263

EPHEMERIS_TYPE = 0
CLASSIFICATION_TYPE = U
NORAD_CAT_ID   = 66615
ELEMENT_SET_NO = 999
REV_AT_EPOCH   = 573
BSTAR          = .99727967E-3
MEAN_MOTION_DOT = .41613E-3
MEAN_MOTION_DDOT = 0

CCSDS_OMM_VERS = 2.0
CREATION_DATE  = 
ORIGINATOR     = 

OBJECT_NAME    = STARLINK-35391
OBJECT_ID      = 2025-270AE
CENTER_NAME    = EARTH
REF_FRAME      = TEME
TIME_SYSTEM    = UTC
MEAN_ELEMENT_THEORY = SGP/SGP4

EPOCH          = 2025-12-23T01:40:32.245824
MEAN_MOTION    = 15.40750542
ECCENTRICITY   = .0002051
INCLINATION    = 43.0009
RA_OF_ASC_NODE = 132.7099
ARG_OF_PERICENTER = 281.5109
MEAN_ANOMALY   = 78.5517

EPHEMERIS_TYPE = 0
CLASSIFICATION_TYPE = U
NORAD_CAT_ID   = 66616
ELEMENT_SET_NO = 999
REV_AT_EPOCH   = 605
BSTAR          = .10379E-2
MEAN_MOTION_DOT = .43372E-3
MEAN_MOTION_DDOT = 0

CCSDS_OMM_VERS = 2.0
CREATION_DATE  = 
ORIGINATOR     = 

OBJECT_NAME    = STARLINK-35940
OBJECT_ID      = 2025-271A
CENTER_NAME    = EARTH
REF_FRAME      = TEME
TIME_SYSTEM    = UTC
MEAN_ELEMENT_THEORY = SGP/SGP4

EPOCH          = 2025-12-23T02:18:53.108064
MEAN_MOTION    = 15.39621466
ECCENTRICITY   = .0001155
INCLINATION    = 53.1597
RA_OF_ASC_NODE = 138.2821
ARG_OF_PERICENTER = 58.3609
MEAN_ANOMALY   = 301.7508

EPHEMERIS_TYPE = 0
CLASSIFICATION_TYPE = U
NORAD_CAT_ID   = 66617
ELEMENT_SET_NO = 999
REV_AT_EPOCH   = 580
BSTAR          = .10042E-2
MEAN_MOTION_DOT = .39979E-3
MEAN_MOTION_DDOT = 0

CCSDS_OMM_VERS = 2.0
CREATION_DATE  = 
ORIGINATOR     = 

OBJECT_NAME    = STARLINK-35970
OBJECT_ID      = 2025-271B
CENTER_NAME    = EARTH
REF_FRAME      = TEME
TIME_SYSTEM    = UTC
MEAN_ELEMENT_THEORY = SGP/SGP4

EPOCH          = 2025-12-23T04:00:01.998720
MEAN_MOTION    = 15.45507525
ECCENTRICITY   = .00013
INCLINATION    = 53.1601
RA_OF_ASC_NODE = 137.3609
ARG_OF_PERICENTER = 76.8548
MEAN_ANOMALY   = 247.0138

EPHEMERIS_TYPE = 0
CLASSIFICATION_TYPE = U
NORAD_CAT_ID   = 66618
ELEMENT_SET_NO = 999
REV_AT_EPOCH   = 591
BSTAR          = .11781E-2
MEAN_MOTION_DOT = .57419E-3
MEAN_MOTION_DDOT = 0

CCSDS_OMM_VERS = 2.0
CREATION_DATE  = 
ORIGINATOR     = 

OBJECT_NAME    = STARLINK-35951
OBJECT_ID      = 2025-271C
CENTER_NAME    = EARTH
REF_FRAME      = TEME
TIME_SYSTEM    = UTC
MEAN_ELEMENT_THEORY = SGP/SGP4

EPOCH          = 2025-12-23T04:00:01.998720
MEAN_MOTION    = 15.39573333
ECCENTRICITY   = .0001532
INCLINATION    = 53.1606
RA_OF_ASC_NODE = 137.4901
ARG_OF_PERICENTER = 82.7416
MEAN_ANOMALY   = 178.6988

EPHEMERIS_TYPE = 0
CLASSIFICATION_TYPE = U
NORAD_CAT_ID   = 66619
ELEMENT_SET_NO = 999
REV_AT_EPOCH   = 591
BSTAR          = .13537E-2
MEAN_MOTION_DOT = .54047E-3
MEAN_MOTION_DDOT = 0

CCSDS_OMM_VERS = 2.0
CREATION_DATE  = 
ORIGINATOR     = 

OBJECT_NAME    = STARLINK-35936
OBJECT_ID      = 2025-271D
CENTER_NAME    = EARTH
REF_FRAME      = TEME
TIME_SYSTEM    = UTC
MEAN_ELEMENT_THEORY = SGP/SGP4

EPOCH          = 2025-12-23T04:00:01.998720
MEAN_MOTION    = 15.39582458
ECCENTRICITY   = .0000852
INCLINATION    = 53.1609
RA_OF_ASC_NODE = 137.5942
ARG_OF_PERICENTER = 70.5391
MEAN_ANOMALY   = 139.3845

EPHEMERIS_TYPE = 0
CLASSIFICATION_TYPE = U
NORAD_CAT_ID   = 66620
ELEMENT_SET_NO = 999
REV_AT_EPOCH   = 591
BSTAR          = .11099E-2
MEAN_MOTION_DOT = .44199E-3
MEAN_MOTION_DDOT = 0

CCSDS_OMM_VERS = 2.0
CREATION_DATE  = 
ORIGINATOR     = 

OBJECT_NAME    = STARLINK-35847
OBJECT_ID      = 2025-271E
CENTER_NAME    = EARTH
REF_FRAME      = TEME
TIME_SYSTEM    = UTC
MEAN_ELEMENT_THEORY = SGP/SGP4

EPOCH          = 2025-12-23T04:00:01.998720
MEAN_MOTION    = 15.45508869
ECCENTRICITY   = .0001252
INCLINATION    = 53.1600
RA_OF_ASC_NODE = 137.3535
ARG_OF_PERICENTER = 79.5527
MEAN_ANOMALY   = 247.8524

EPHEMERIS_TYPE = 0
CLASSIFICATION_TYPE = U
NORAD_CAT_ID   = 66621
ELEMENT_SET_NO = 999
REV_AT_EPOCH   = 591
BSTAR          = .11428E-2
MEAN_MOTION_DOT = .55675E-3
MEAN_MOTION_DDOT = 0

CCSDS_OMM_VERS = 2.0
CREATION_DATE  = 
ORIGINATOR     = 

OBJECT_NAME    = STARLINK-35950
OBJECT_ID      = 2025-271F
CENTER_NAME    = EARTH
REF_FRAME      = TEME
TIME_SYSTEM    = UTC
MEAN_ELEMENT_THEORY = SGP/SGP4

EPOCH          = 2025-12-22T19:38:12.214752
MEAN_MOTION    = 15.39675938
ECCENTRICITY   = .00012221
INCLINATION    = 53.1612
RA_OF_ASC_NODE = 139.3883
ARG_OF_PERICENTER = 274.5298
MEAN_ANOMALY   = 85.5568

EPHEMERIS_TYPE = 0
CLASSIFICATION_TYPE = U
NORAD_CAT_ID   = 66622
ELEMENT_SET_NO = 999
REV_AT_EPOCH   = 576
BSTAR          = .12007732E-2
MEAN_MOTION_DOT = .48022E-3
MEAN_MOTION_DDOT = 0

CCSDS_OMM_VERS = 2.0
CREATION_DATE  = 
ORIGINATOR     = 

OBJECT_NAME    = STARLINK-35920
OBJECT_ID      = 2025-271G
CENTER_NAME    = EARTH
REF_FRAME      = TEME
TIME_SYSTEM    = UTC
MEAN_ELEMENT_THEORY = SGP/SGP4

EPOCH          = 2025-12-22T19:51:35.812512
MEAN_MOTION    = 15.39628468
ECCENTRICITY   = .00005462
INCLINATION    = 53.1605
RA_OF_ASC_NODE = 139.4454
ARG_OF_PERICENTER = 86.5592
MEAN_ANOMALY   = 273.5475

EPHEMERIS_TYPE = 0
CLASSIFICATION_TYPE = U
NORAD_CAT_ID   = 66623
ELEMENT_SET_NO = 999
REV_AT_EPOCH   = 576
BSTAR          = .66585143E-3
MEAN_MOTION_DOT = .26333E-3
MEAN_MOTION_DDOT = 0

CCSDS_OMM_VERS = 2.0
CREATION_DATE  = 
ORIGINATOR     = 

OBJECT_NAME    = STARLINK-35927
OBJECT_ID      = 2025-271H
CENTER_NAME    = EARTH
REF_FRAME      = TEME
TIME_SYSTEM    = UTC
MEAN_ELEMENT_THEORY = SGP/SGP4

EPOCH          = 2025-12-23T04:00:01.998720
MEAN_MOTION    = 15.43679740
ECCENTRICITY   = .0001728
INCLINATION    = 53.1608
RA_OF_ASC_NODE = 137.4530
ARG_OF_PERICENTER = 109.8173
MEAN_ANOMALY   = 170.8091

EPHEMERIS_TYPE = 0
CLASSIFICATION_TYPE = U
NORAD_CAT_ID   = 66624
ELEMENT_SET_NO = 999
REV_AT_EPOCH   = 591
BSTAR          = -.50715E-1
MEAN_MOTION_DOT = -.206345E-1
MEAN_MOTION_DDOT = 0

CCSDS_OMM_VERS = 2.0
CREATION_DATE  = 
ORIGINATOR     = 

OBJECT_NAME    = STARLINK-35929
OBJECT_ID      = 2025-271J
CENTER_NAME    = EARTH
REF_FRAME      = TEME
TIME_SYSTEM    = UTC
MEAN_ELEMENT_THEORY = SGP/SGP4

EPOCH          = 2025-12-23T03:12:14.603040
MEAN_MOTION    = 15.39643977
ECCENTRICITY   = .0001329
INCLINATION    = 53.1614
RA_OF_ASC_NODE = 137.7996
ARG_OF_PERICENTER = 82.6152
MEAN_ANOMALY   = 277.5004

EPHEMERIS_TYPE = 0
CLASSIFICATION_TYPE = U
NORAD_CAT_ID   = 66625
ELEMENT_SET_NO = 999
REV_AT_EPOCH   = 581
BSTAR          = .12366E-2
MEAN_MOTION_DOT = .49425E-3
MEAN_MOTION_DDOT = 0

