STARLINK-36040          
1 66614U 25270AC  25356.81497144  .00046870  00000+0  11224-2 0  9994
2 66614  43.0038 134.2382 0001791 268.7631  91.3020 15.40700005  5740
STARLINK-35988          
1 66615U 25270AD  25356.76358775  .00041613  00000+0  99728-3 0  9991
2 66615  42.9966 134.7149 0000945 267.1486  92.9263 15.40722173  5731
STARLINK-35391          
1 66616U 25270AE  25357.06981766  .00043372  00000+0  10379-2 0  9996
2 66616  43.0009 132.7099 0002051 281.5109  78.5517 15.40750542  6055
STARLINK-35940          
1 66617U 25271A   25357.09644801  .00039979  00000+0  10042-2 0  9992
2 66617  53.1597 138.2821 0001155  58.3609 301.7508 15.39621466  5806
STARLINK-35970          
1 66618U 25271B   25357.16668980  .00057419  00000+0  11781-2 0  9995
2 66618  53.1601 137.3609 0001300  76.8548 247.0138 15.45507525  5915
STARLINK-35951          
1 66619U 25271C   25357.16668980  .00054047  00000+0  13537-2 0  9991
2 66619  53.1606 137.4901 0001532  82.7416 178.6988 15.39573333  5919
STARLINK-35936          
1 66620U 25271D   25357.16668980  .00044199  00000+0  11099-2 0  9991
2 66620  53.1609 137.5942 0000852  70.5391 139.3845 15.39582458  5915
STARLINK-35847          
1 66621U 25271E   25357.16668980  .00055675  00000+0  11428-2 0  9999
2 66621  53.1600 137.3535 0001252  79.5527 247.8524 15.45508869  5918
STARLINK-35950          
1 66622U 25271F   25356.81819693  .00048022  00000+0  12008-2 0  9993
2 66622  53.1612 139.3883 0001222 274.5298  85.5568 15.39675938  5762
STARLINK-35920          
1 66623U 25271G   25356.82749783  .00026333  00000+0  66585-3 0  9998
2 66623  53.1605 139.4454 0000546  86.5592 273.5475 15.39628468  5768
STARLINK-35927          
1 66624U 25271H   25357.16668980 -.02063450  00000+0 -50715-1 0  9997
2 66624  53.1608 137.4530 0001728 109.8173 170.8091 15.43679740  5916
STARLINK-35929          
1 66625U 25271J   25357.13350235  .00049425  00000+0  12366-2 0  9999
2 66625  53.1614 137.7996 0001329  82.6152 277.5004 15.39643977  5811
